[{"OBJECT_NAME":"DAMPE","OBJECT_ID":"2015-078A","EPOCH":"2026-03-09T23:55:00.527232","MEAN_MOTION":15.30502084,"ECCENTRICITY":0.00138005,"INCLINATION":97.4588,"RA_OF_ASC_NODE":73.9866,"ARG_OF_PERICENTER":70.6942,"MEAN_ANOMALY":289.579,"EPHEMERIS_TYPE":0,"CLASSIFICATION_TYPE":"U","NORAD_CAT_ID":41173,"ELEMENT_SET_NO":999,"REV_AT_EPOCH":56937,"BSTAR":9.1158173e-5,"MEAN_MOTION_DOT":2.617e-5,"MEAN_MOTION_DDOT":0},{"OBJECT_NAME":"STARLINK-36428","OBJECT_ID":"2026-003AE","EPOCH":"2026-03-09T11:36:42.569856","MEAN_MOTION":15.27610726,"ECCENTRICITY":0.00012272,"INCLINATION":43.0027,"RA_OF_ASC_NODE":228.1124,"ARG_OF_PERICENTER":240.5697,"MEAN_ANOMALY":119.5033,"EPHEMERIS_TYPE":0,"CLASSIFICATION_TYPE":"U","NORAD_CAT_ID":67362,"ELEMENT_SET_NO":999,"REV_AT_EPOCH":879,"BSTAR":0.001354714,"MEAN_MOTION_DOT":0.0003724,"MEAN_MOTION_DDOT":0}]
